GSAT0222 (GALILEO 26)   
1 43565U 18060B   22342.90361345 -.00000087  00000+0  00000+0 0  9996
2 43565  57.2296  16.4698 0004858 275.8610  84.1450  1.70476112 27284
GSAT0219 (GALILEO 23)   
1 43566U 18060C   22343.71073573 -.00000085  00000+0  00000+0 0  9998
2 43566  57.2304  16.4501 0004526 275.5474  84.4615  1.70476146 27277
GSAT0220 (GALILEO 24)   
1 43567U 18060D   22342.75782456 -.00000088  00000+0  00000+0 0  9992
2 43567  57.2306  16.4760 0005302 272.7132  87.2875  1.70476140 27239
BEIDOU-3 M13            
1 43622U 18072A   22344.61699000 -.00000010  00000+0  00000+0 0  9991
2 43622  55.5886 105.4397 0004501 276.8217  89.8937  1.86231412 28730
BEIDOU-3 M14            
1 43623U 18072B   22342.95031234 -.00000026  00000+0  00000+0 0  9993
2 43623  55.5901 105.4876 0002083 317.8688 101.6587  1.86231400 28700
GPS BIII-1              
1 43873U 18109A   22343.49496958  .00000036  00000+0  00000+0 0  9999
2 43873  55.1258 142.9842 0022234 187.6498  42.0768  2.00556964 29239
METEOR-M2 2             
1 44387U 19038A   22344.47985941  .00000040  00000+0  37031-4 0  9990
2 44387  98.7481 304.0533 0002162 105.3422 254.7996 14.23733921178453
GPS BIII-2              
1 44506U 19056A   22343.53922376 -.00000091  00000+0  00000+0 0  9990
2 44506  55.7487  22.0943 0029805 185.7543 336.4666  2.00560003 24280
BEIDOU-3 M23            
1 44542U 19061A   22342.16778900  .00000049  00000+0  00000+0 0  9998
2 44542  54.5384 226.2169 0008927 355.0768   5.0088  1.86231602 21821
BEIDOU-3 M24            
1 44543U 19061B   22344.18133015  .00000040  00000+0  00000+0 0  9996
2 44543  54.5366 226.1175 0005847 344.3393 197.2610  1.86231885 21852
BEIDOU-3 M21            
1 44793U 19078A   22343.59345743 -.00000095  00000+0  10000-3 0  9994
2 44793  54.9022 344.5844 0005738 358.3029 341.8679  1.86232167 20709
BEIDOU-3 M22            
1 44794U 19078B   22342.72052192 -.00000098  00000+0  00000+0 0  9990
2 44794  54.8754 344.6018 0004081 347.4920  39.3835  1.86232637 20697
ELEKTRO-L 3             
1 44903U 19095A   22344.49994185 -.00000081  00000+0  00000+0 0  9996
2 44903   0.0797  94.1338 0001563 143.0577  98.0000  1.00271250 10810
GPS BIII-3              
1 45854U 20041A   22342.96715619 -.00000059  00000+0  00000+0 0  9993
2 45854  55.6598  79.3873 0029083 182.3560 226.9010  2.00567947 18245
GPS BIII-4              
1 46826U 20078A   22344.15990817 -.00000010  00000+0  00000+0 0  9998
2 46826  54.4578 262.9632 0024827 190.1177 336.8180  2.00565201 15725
GSAT0223 (GALILEO 27)   
1 49809U 21116A   22342.61529032 -.00000088  00000+0  00000+0 0  9997
2 49809  57.2221  16.3772 0003369 225.3270 137.3320  1.70476349  6252
GSAT0224 (GALILEO 28)   
1 49810U 21116B   22341.83832456 -.00000089  00000+0  00000+0 0  9990
2 49810  57.2227  16.3962 0002681 227.5625 130.7284  1.70476327  6257
